IRIDIUM 8 [+]           
1 24792U 97020A   15335.57674953  .00000202  00000-0  65013-4 0  9998
2 24792  86.3982 194.2733 0002025  88.1790 271.9637 14.34216594972410
IRIDIUM 7 [+]           
1 24793U 97020B   15335.57040653  .00000196  00000-0  62938-4 0  9998
2 24793  86.3986 194.5278 0002004  86.8427 273.2998 14.34216886972410
IRIDIUM 6 [+]           
1 24794U 97020C   15335.56394354  .00000206  00000-0  66562-4 0  9997
2 24794  86.3984 194.4738 0002112  84.3568 275.7869 14.34216417972412
IRIDIUM 5 [+]           
1 24795U 97020D   15335.27865497  .00000228  00000-0  74517-4 0  9990
2 24795  86.3973 194.6475 0001873  83.0961 277.0448 14.34216480972459
IRIDIUM 4 [-]           
1 24796U 97020E   15335.61446689  .00000223  00000-0  71251-4 0  9994
2 24796  86.3978 193.7755 0002135  89.8496 297.5452 14.35014294972480
IRIDIUM 914 [-]         
1 24836U 97030A   15335.29747895  .00000207  00000-0  61158-4 0  9994
2 24836  86.3968 212.1570 0003027 118.6060  18.3338 14.38615878967871
IRIDIUM 12 [+]          
1 24837U 97030B   15335.32146398  .00000314  00000-0  10523-3 0  9998
2 24837  86.3989 225.7603 0001985  84.4247  53.4361 14.34217155966125
IRIDIUM 10 [+]          
1 24839U 97030D   15335.30892477  .00000330  00000-0  11065-3 0  9994
2 24839  86.3988 225.7487 0002012  85.0391  53.5896 14.34217635966133
IRIDIUM 13 [+]          
1 24840U 97030E   15335.32325084  .00000323  00000-0  10817-3 0  9999
2 24840  86.3990 225.8707 0001844  86.6421  27.7298 14.34217583966127
IRIDIUM 16 [-]          
1 24841U 97030F   15335.31108505  .00000232  00000-0  72297-4 0  9996
2 24841  86.4068 226.1017 0002367  27.2977 332.8344 14.36581852966623
IRIDIUM 911 [-]         
1 24842U 97030G   15335.33834973  .00000293  00000-0  78445-4 0  9992
2 24842  86.4496 227.2017 0015155 155.7679 339.4221 14.44775348971522
IRIDIUM 15 [+]          
1 24869U 97034A   15335.32127544  .00000042  00000-0  81119-5 0  9998
2 24869  86.3979 257.4748 0002090  83.0647  69.1348 14.34213110963097
IRIDIUM 17 [-]          
1 24870U 97034B   15335.41791523  .00000263  00000-0  84394-4 0  9996
2 24870  86.3985 256.3205 0001191  96.1427  37.8751 14.35604151963274
IRIDIUM 920 [-]         
1 24871U 97034C   15335.34080127  .00000241  00000-0  71035-4 0  9994
2 24871  86.4003 243.8988 0013233  42.4211  93.1184 14.39338633965248
IRIDIUM 18 [+]          
1 24872U 97034D   15335.53283074  .00000341  00000-0  11459-3 0  9996
2 24872  86.3979 257.6119 0002139  80.0141 280.1296 14.34213729963122
IRIDIUM 921 [-]         
1 24873U 97034E   15335.55386759  .00003352  00000-0  20688-3 0  9992
2 24873  86.3942 332.0444 0005308 298.1631 196.6498 15.09557340  3010
IRIDIUM 26 [-]          
1 24903U 97043A   15335.55545315  .00000210  00000-0  66557-4 0  9997
2 24903  86.3958 130.7886 0002123  86.1955   1.6115 14.35133192957135
IRIDIUM 25 [+]          
1 24904U 97043B   15335.48110228  .00000069  00000-0  17412-4 0  9999
2 24904  86.3952 131.1149 0002030  88.2219 271.9209 14.34215821957023
IRIDIUM 46 [+]          
1 24905U 97043C   15335.49378699  .00000062  00000-0  14970-4 0  9998
2 24905  86.3961 131.6116 0002101  90.8279 269.3157 14.34215946957039
IRIDIUM 23 [S]          
1 24906U 97043D   15335.56558786  .00000064  00000-0  15791-4 0  9998
2 24906  86.3966 131.0423 0002159  89.5560 313.7955 14.34215823957057
IRIDIUM 22 [+]          
1 24907U 97043E   15335.33162009  .00000017  00000-0 -10156-5 0  9993
2 24907  86.3919 131.7770 0003361 107.3597 299.6729 14.34237470957001
DUMMY MASS 1 [-]        
1 24925U 97048A   15335.47660193  .00000257  00000-0  26888-4 0  9993
2 24925  86.3338 303.2569 0005220 220.2796 139.8041 14.85018446987922
DUMMY MASS 2 [-]        
1 24926U 97048B   15335.45551830  .00000244  00000-0  25492-4 0  9995
2 24926  86.3338 304.2903 0005797 231.7916 279.1967 14.84787616987786
IRIDIUM 29 [-]          
1 24944U 97051A   15335.52843825  .00000248  00000-0  80973-4 0  9994
2 24944  86.3962 162.6528 0002176  96.8734 263.2710 14.34518526953627
IRIDIUM 32 [+]          
1 24945U 97051B   15335.56064504  .00000027  00000-0  24830-5 0  9994
2 24945  86.3960 162.7300 0002069  89.4844 270.6588 14.34217710953633
IRIDIUM 33 [-]          
1 24946U 97051C   15335.60652574  .00000175  00000-0  56416-4 0  9998
2 24946  86.3876 162.6207 0005856 282.9461 146.7680 14.33439643953307
IRIDIUM 28 [-]          
1 24948U 97051E   15335.55580664  .00000196  00000-0  61426-4 0  9994
2 24948  86.3966 162.1926 0001921  79.6665 303.7033 14.35419901953728
IRIDIUM 30 [+]          
1 24949U 97051F   15334.99615418  .00000030  00000-0  35136-5 0  9995
2 24949  86.3963 163.0529 0002131  88.1724 271.9716 14.34217839953538
IRIDIUM 31 [+]          
1 24950U 97051G   15335.54795856  .00000039  00000-0  67988-5 0  9993
2 24950  86.3961 162.8231 0001974  93.2078 266.9343 14.34218029953620
IRIDIUM 19 [+]          
1 24965U 97056A   15335.60211528  .00000193  00000-0  61754-4 0  9995
2 24965  86.3982 194.2696 0002001  87.1578 272.9847 14.34220463951777
IRIDIUM 35 [+]          
1 24966U 97056B   15335.54503793  .00000211  00000-0  68414-4 0  9998
2 24966  86.3981 194.2916 0002007  86.5230 273.6196 14.34216754951746
IRIDIUM 36 [-]          
1 24967U 97056C   15335.25373352  .00000184  00000-0  57278-4 0  9998
2 24967  86.3993 193.9074 0001959  92.5013  43.9281 14.35466412951968
IRIDIUM 37 [+]          
1 24968U 97056D   15335.58943808  .00000074  00000-0  19356-4 0  9997
2 24968  86.4001 194.4421 0002001  85.7645 274.3779 14.34216802951750
IRIDIUM 34 [+]          
1 24969U 97056E   15335.60847668  .00000206  00000-0  66390-4 0  9995
2 24969  86.3984 194.3724 0001962  87.4072 272.7348 14.34219378951758
IRIDIUM 43 [+]          
1 25039U 97069A   15335.45671623  .00000366  00000-0  12373-3 0  9995
2 25039  86.3990 257.5599 0001972  84.9987 275.1434 14.34213590945514
IRIDIUM 41 [+]          
1 25040U 97069B   15335.40733192  .00000326  00000-0  10936-3 0  9991
2 25040  86.3980 257.5533 0002165  78.6378  59.4046 14.34212644945502
IRIDIUM 40 [+]          
1 25041U 97069C   15335.40595550  .00000350  00000-0  11784-3 0  9995
2 25041  86.3985 257.7773 0001682 114.3264 245.8108 14.34219772945522
IRIDIUM 39 [+]          
1 25042U 97069D   15335.55185212  .00000031  00000-0  40267-5 0  9998
2 25042  86.3998 257.7567 0002390  74.8491 285.2969 14.34217712945522
IRIDIUM 38 [-]          
1 25043U 97069E   15335.36907155  .00000283  00000-0  90758-4 0  9994
2 25043  86.3984 255.4184 0001880  52.5417  86.7732 14.35884735945823
IRIDIUM 42 [-]          
1 25077U 97077A   15335.49869584  .00000210  00000-0  67748-4 0  9990
2 25077  86.3984 257.5470 0002011  80.6392 279.5032 14.34427440941389
IRIDIUM 44 [-]          
1 25078U 97077B   15335.34522983  .00000303  00000-0  93943-4 0  9993
2 25078  86.3989 248.5712 0001759  36.1788 103.2174 14.37955553942607
IRIDIUM 45 [+]          
1 25104U 97082A   15335.54161891  .00000032  00000-0  43182-5 0  9998
2 25104  86.3959 162.8726 0002140  46.0096 314.1276 14.34217696939589
IRIDIUM 24 [-]          
1 25105U 97082B   15335.48761400  .00000262  00000-0  77296-4 0  9991
2 25105  86.3924 113.4911 0013068  48.5622 353.3484 14.39698847941757
IRIDIUM 47 [+]          
1 25106U 97082C   15335.57846881  .00000065  00000-0  16011-4 0  9998
2 25106  86.3950 130.9638 0002152  90.4072 313.9511 14.34217242939586
IRIDIUM 49 [+]          
1 25108U 97082E   15335.59618071  .00000069  00000-0  17503-4 0  9991
2 25108  86.3953 131.0441 0002101  90.6706 339.6313 14.34215869939594
IRIDIUM 52 [+]          
1 25169U 98010A   15335.26305736  .00000316  00000-0  10567-3 0  9992
2 25169  86.3994 226.0534 0001983  85.2415 274.9007 14.34217634930952
IRIDIUM 56 [+]          
1 25170U 98010B   15335.25671037  .00000345  00000-0  11623-3 0  9999
2 25170  86.4004 226.1585 0002072  76.0074 284.1352 14.34218334930935
IRIDIUM 54 [+]          
1 25171U 98010C   15335.28842540  .00000318  00000-0  10641-3 0  9991
2 25171  86.3994 226.0608 0001978  85.1233 275.0189 14.34216883931104
IRIDIUM 50 [+]          
1 25172U 98010D   15335.27739986  .00000311  00000-0  10387-3 0  9990
2 25172  86.3993 226.0246 0002046  86.6516  52.9532 14.34217460930935
IRIDIUM 53 [+]          
1 25173U 98010E   15335.29633126  .00000302  00000-0  10077-3 0  9998
2 25173  86.3993 226.0227 0001980  85.0848  54.0248 14.34217495930948
IRIDIUM 51 [S]          
1 25262U 98018A   15335.56406537  .00000275  00000-0  90977-4 0  9996
2 25262  86.3982 194.5653 0002136  89.1603 270.9838 14.34217585930376
IRIDIUM 61 [+]          
1 25263U 98018B   15335.52600649  .00000190  00000-0  60661-4 0  9996
2 25263  86.3984 194.4360 0002034  86.4665 273.6763 14.34216294926073
IRIDIUM 55 [+]          
1 25272U 98019A   15335.52893067  .00000047  00000-0  96975-5 0  9994
2 25272  86.3960 162.6553 0002053  88.9715 271.1716 14.34218274925274
IRIDIUM 57 [+]          
1 25273U 98019B   15335.36402785  .00000038  00000-0  66538-5 0  9992
2 25273  86.3964 163.0064 0002065  88.8913 271.2519 14.34217517925252
IRIDIUM 58 [+]          
1 25274U 98019C   15335.23083045  .00000034  00000-0  51834-5 0  9992
2 25274  86.3967 163.2431 0002125  87.9506 272.1934 14.34217941925231
IRIDIUM 59 [+]          
1 25275U 98019D   15335.58601985  .00000025  00000-0  18820-5 0  9998
2 25275  86.3962 162.9785 0002107  91.7865 268.3573 14.34216600925288
IRIDIUM 60 [+]          
1 25276U 98019E   15335.52259220  .00000032  00000-0  43385-5 0  9996
2 25276  86.3958 162.6467 0002034  88.9773 271.1656 14.34217680925275
IRIDIUM 62 [+]          
1 25285U 98021A   15335.48403904  .00000300  00000-0  99953-4 0  9993
2 25285  86.3966  99.5770 0002144  93.4892 266.6549 14.34211323924226
IRIDIUM 63 [-]          
1 25286U 98021B   15335.50899817  .00000219  00000-0  70619-4 0  9996
2 25286  86.3993  99.9355 0002251  97.1139 309.3448 14.34532545924230
IRIDIUM 64 [+]          
1 25287U 98021C   15335.49672390  .00000279  00000-0  92688-4 0  9996
2 25287  86.3966  99.6092 0001900  97.1149 263.0263 14.34211240924201
